NORAD_CAT_ID,OBJECT_NAME,OBJECT_TYPE,EPOCH,MEAN_MOTION,ECCENTRICITY,INCLINATION,RA_OF_ASC_NODE,ARG_OF_PERICENTER,MEAN_ANOMALY,BSTAR,MEAN_MOTION_DOT,MEAN_MOTION_DDOT,TLE_LINE0,TLE_LINE1,TLE_LINE2,SEMIMAJOR_AXIS,PERIOD,APOGEE,PERIGEE,DECAYED
52002.0,STARLINK-3668,PAYLOAD,2024-01-30 20:18:06,15.08877101,0.0001452,53.2166,230.6319,94.5964,265.5194,0.00040271,6.133e-05,0.0,0 STARLINK-3668,1 52002U 22025AY  24030.84591116  .00006133  00000-0  40271-3 0  9994,2 52002  53.2166 230.6319 0001452  94.5964 265.5194 15.08877101104855,6917.767,95.435,540.636,538.628,0.0
52002.0,STARLINK-3668,PAYLOAD,2024-01-31 13:47:23,15.08844471,0.0002056,53.2172,227.3592,114.3183,245.8024,0.00011551,1.551e-05,0.0,0 STARLINK-3668,1 52002U 22025AY  24031.57457278  .00001551  00000-0  11551-3 0  9993,2 52002  53.2172 227.3592 0002056 114.3183 245.8024 15.08844471106470,6917.867,95.437,541.154,538.309,0.0
52002.0,STARLINK-3668,PAYLOAD,2024-02-02 19:50:30,15.08834262,0.0001127,53.2171,217.2529,85.5336,274.5785,0.00018676,2.685e-05,0.0,0 STARLINK-3668,1 52002U 22025AY  24033.82674583  .00002685  00000-0  18676-3 0  9997,2 52002  53.2171 217.2529 0001127  85.5336 274.5785 15.08834262106812,6917.898,95.438,540.543,538.983,0.0
52002.0,STARLINK-3668,PAYLOAD,2024-02-02 21:25:53,15.0883534,0.0001133,53.217,216.9527,87.28,272.8322,0.00019797,2.864e-05,0.0,0 STARLINK-3668,1 52002U 22025AY  24033.89298501  .00002864  00000-0  19797-3 0  9990,2 52002  53.2170 216.9527 0001133  87.2800 272.8322 15.08835340105317,6917.895,95.438,540.543,538.976,0.0
52002.0,STARLINK-3668,PAYLOAD,2024-02-03 11:44:22,15.0884279,0.0001155,53.2168,214.2765,88.6616,271.4508,0.00015258,2.141e-05,0.0,0 STARLINK-3668,1 52002U 22025AY  24034.48914551  .00002141  00000-0  15258-3 0  9992,2 52002  53.2168 214.2765 0001155  88.6616 271.4508 15.08842790105401,6917.872,95.437,540.536,538.938,0.0
52002.0,STARLINK-3668,PAYLOAD,2024-02-03 18:05:54,15.08846684,0.0001141,53.2165,213.0888,89.2767,270.8356,0.000181,2.594e-05,0.0,0 STARLINK-3668,1 52002U 22025AY  24034.75410221  .00002594  00000-0  18100-3 0  9998,2 52002  53.2165 213.0888 0001141  89.2767 270.8356 15.08846684105444,6917.86,95.437,540.514,538.936,0.0
52002.0,STARLINK-3668,PAYLOAD,2024-02-04 14:45:55,15.08848242,0.0001118,53.2173,209.2241,85.3521,274.7599,0.00010257,1.345e-05,0.0,0 STARLINK-3668,1 52002U 22025AY  24035.61522209  .00001345  00000-0  10257-3 0  9992,2 52002  53.2173 209.2241 0001118  85.3521 274.7599 15.08848242105570,6917.855,95.437,540.494,538.947,0.0
52002.0,STARLINK-3668,PAYLOAD,2024-02-04 17:56:41,15.08847906,0.0001116,53.2167,208.6291,84.3138,275.7982,9.4219e-05,1.212e-05,0.0,0 STARLINK-3668,1 52002U 22025AY  24035.74770151  .00001212  00000-0  94219-4 0  9991,2 52002  53.2167 208.6291 0001116  84.3138 275.7982 15.08847906107106,6917.856,95.437,540.493,538.949,0.0
52002.0,STARLINK-3668,PAYLOAD,2024-02-05 11:25:56,15.08843995,0.0001238,53.2168,205.3587,80.6699,279.4433,5.3117e-05,5.58e-06,0.0,0 STARLINK-3668,1 52002U 22025AY  24036.47634325  .00000558  00000-0  53117-4 0  9998,2 52002  53.2168 205.3587 0001238  80.6699 279.4433 15.08843995107213,6917.868,95.437,540.59,538.877,0.0
52002.0,STARLINK-3668,PAYLOAD,2024-02-05 14:36:42,15.08843324,0.0001205,53.2169,204.7637,89.4006,270.7125,4.0522e-05,3.57e-06,0.0,0 STARLINK-3668,1 52002U 22025AY  24036.60882307  .00000357  00000-0  40522-4 0  9991,2 52002  53.2169 204.7637 0001205  89.4006 270.7125 15.08843324105728,6917.87,95.437,540.569,538.902,0.0
52002.0,STARLINK-3668,PAYLOAD,2024-02-05 16:12:05,15.0884293,0.0001214,53.2174,204.4663,97.2021,262.9109,3.2699e-05,2.33e-06,0.0,0 STARLINK-3668,1 52002U 22025AY  24036.67506283  .00000233  00000-0  32699-4 0  9993,2 52002  53.2174 204.4663 0001214  97.2021 262.9109 15.08842930105732,6917.871,95.437,540.576,538.897,0.0
52002.0,STARLINK-3668,PAYLOAD,2024-02-06 14:27:29,15.08839212,0.000125,53.2176,200.3037,98.8413,261.272,4.5215e-05,4.32e-06,0.0,0 STARLINK-3668,1 52002U 22025AY  24037.60242444  .00000432  00000-0  45215-4 0  9992,2 52002  53.2176 200.3037 0001250  98.8413 261.2720 15.08839212105871,6917.883,95.438,540.613,538.883,0.0
52002.0,STARLINK-3668,PAYLOAD,2024-02-06 16:02:52,15.08839812,0.0001245,53.2176,200.0064,96.0186,264.0948,4.8345e-05,4.82e-06,0.0,0 STARLINK-3668,1 52002U 22025AY  24037.66866400  .00000482  00000-0  48345-4 0  9994,2 52002  53.2176 200.0064 0001245  96.0186 264.0948 15.08839812107397,6917.881,95.438,540.607,538.885,0.0
52002.0,STARLINK-3668,PAYLOAD,2024-02-07 11:07:30,15.08835249,0.0001566,53.2183,196.4378,115.7342,244.3812,4.4423e-06,-2.17e-06,0.0,0 STARLINK-3668,1 52002U 22025AY  24038.46354980 -.00000217  00000-0  44423-5 0  9999,2 52002  53.2183 196.4378 0001566 115.7342 244.3812 15.08835249107515,6917.895,95.438,540.843,538.677,0.0
52002.0,STARLINK-3668,PAYLOAD,2024-02-07 14:18:16,15.08834951,0.0001444,53.2179,195.8431,113.3603,246.7541,3.2199e-05,2.24e-06,0.0,0 STARLINK-3668,1 52002U 22025AY  24038.59602964  .00000224  00000-0  32199-4 0  9994,2 52002  53.2179 195.8431 0001444 113.3603 246.7541 15.08834951106021,6917.896,95.438,540.76,538.762,0.0
52002.0,STARLINK-3668,PAYLOAD,2024-02-07 17:29:03,15.08836945,0.0001348,53.2177,195.2503,107.0867,253.0273,7.075e-05,8.38e-06,0.0,0 STARLINK-3668,1 52002U 22025AY  24038.72850828  .00000838  00000-0  70750-4 0  9999,2 52002  53.2177 195.2503 0001348 107.0867 253.0273 15.08836945106048,6917.89,95.438,540.687,538.822,0.0
52002.0,STARLINK-3668,PAYLOAD,2024-02-08 09:22:54,15.08866334,0.000145,53.2169,192.2747,111.0828,249.032,-0.00028197,-4.776e-05,0.0,0 STARLINK-3668,1 52002U 22025AY  24039.39090433 -.00004776  00000-0 -28197-3 0  9995,2 52002  53.2169 192.2747 0001450 111.0828 249.0320 15.08866334107653,6917.8,95.436,540.668,538.662,0.0
52002.0,STARLINK-3668,PAYLOAD,2024-02-08 14:09:03,15.08839062,0.0001203,53.2166,191.3819,99.7657,260.3471,7.0771e-05,8.39e-06,0.0,0 STARLINK-3668,1 52002U 22025AY  24039.58962932  .00000839  00000-0  70771-4 0  9998,2 52002  53.2166 191.3819 0001203  99.7657 260.3471 15.08839062106175,6917.883,95.438,540.58,538.916,0.0
52002.0,STARLINK-3668,PAYLOAD,2024-02-08 17:19:49,15.08844292,0.0001208,53.2166,190.7867,93.3581,266.755,0.00011273,1.507e-05,0.0,0 STARLINK-3668,1 52002U 22025AY  24039.72210463  .00001507  00000-0  11273-3 0  9993,2 52002  53.2166 190.7867 0001208  93.3581 266.7550 15.08844292107701,6917.867,95.437,540.568,538.897,0.0
52002.0,STARLINK-3668,PAYLOAD,2024-02-09 13:59:51,15.08837419,0.0001377,53.217,186.9218,87.7027,272.4122,6.0449e-05,6.74e-06,0.0,0 STARLINK-3668,1 52002U 22025AY  24040.58323485  .00000674  00000-0  60449-4 0  9992,2 52002  53.2170 186.9218 0001377  87.7027 272.4122 15.08837419106321,6917.888,95.438,540.706,538.801,0.0
52002.0,STARLINK-3668,PAYLOAD,2024-02-09 17:10:37,15.08839909,0.0001443,53.2178,186.3261,83.5836,276.532,9.9402e-05,1.294e-05,0.0,0 STARLINK-3668,1 52002U 22025AY  24040.71571252  .00001294  00000-0  99402-4 0  9994,2 52002  53.2178 186.3261 0001443  83.5836 276.5320 15.08839909107857,6917.881,95.438,540.744,538.747,0.0
52002.0,STARLINK-3668,PAYLOAD,2024-02-10 13:50:38,15.08841759,0.00016,53.2173,182.462,66.8933,293.2227,0.00010279,1.348e-05,0.0,0 STARLINK-3668,1 52002U 22025AY  24041.57683371  .00001348  00000-0  10279-3 0  9999,2 52002  53.2173 182.4620 0001600  66.8933 293.2227 15.08841759106470,6917.875,95.437,540.847,538.633,0.0
52002.0,STARLINK-3668,PAYLOAD,2024-02-10 18:36:46,15.08853335,0.0001379,53.217,181.5668,76.1737,283.9409,0.00013559,1.871e-05,0.0,0 STARLINK-3668,1 52002U 22025AY  24041.77554383  .00001871  00000-0  13559-3 0  9996,2 52002  53.2170 181.5668 0001379  76.1737 283.9409 15.08853335108011,6917.84,95.437,540.659,538.751,0.0
52002.0,STARLINK-3668,PAYLOAD,2024-02-11 08:55:16,15.0884112,0.0001222,53.217,178.8869,92.1255,267.9877,2.3005e-05,7.8e-07,0.0,0 STARLINK-3668,1 52002U 22025AY  24042.37171452  .00000078  00000-0  23005-4 0  9991,2 52002  53.2170 178.8869 0001222  92.1255 267.9877 15.08841120108103,6917.877,95.437,540.587,538.897,0.0
52002.0,STARLINK-3668,PAYLOAD,2024-02-11 13:41:25,15.08845497,0.0001736,53.2171,178.0017,79.9449,280.1739,0.00010069,1.315e-05,0.0,0 STARLINK-3668,1 52002U 22025AY  24042.57043057  .00001315  00000-0  10069-3 0  9992,2 52002  53.2171 178.0017 0001736  79.9449 280.1739 15.08845497106629,6917.864,95.437,540.93,538.528,0.0
52002.0,STARLINK-3668,PAYLOAD,2024-02-11 15:16:48,15.08846875,0.0001907,53.2171,177.7054,63.9605,296.1583,0.00011324,1.515e-05,0.0,0 STARLINK-3668,1 52002U 22025AY  24042.63667033  .00001515  00000-0  11324-3 0  9992,2 52002  53.2171 177.7054 0001907  63.9605 296.1583 15.08846875108147,6917.859,95.437,541.044,538.405,0.0
52002.0,STARLINK-3668,PAYLOAD,2024-02-12 11:56:49,15.08844581,0.0001777,53.2179,173.8403,65.0112,295.1065,0.00010623,1.403e-05,0.0,0 STARLINK-3668,1 52002U 22025AY  24043.49779046  .00001403  00000-0  10623-3 0  9992,2 52002  53.2179 173.8403 0001777  65.0112 295.1065 15.08844581108271,6917.866,95.437,540.961,538.502,0.0
52002.0,STARLINK-3668,PAYLOAD,2024-02-12 13:32:12,15.08845898,0.0001819,53.218,173.5423,68.5164,291.6022,8.5416e-05,1.072e-05,0.0,0 STARLINK-3668,1 52002U 22025AY  24043.56403012  .00001072  00000-0  85416-4 0  9992,2 52002  53.2180 173.5423 0001819  68.5164 291.6022 15.08845898106773,6917.862,95.437,540.986,538.469,0.0
52002.0,STARLINK-3668,PAYLOAD,2024-02-12 15:07:35,15.08846126,0.0001909,53.2178,173.2455,64.1264,295.9925,9.8027e-05,1.273e-05,0.0,0 STARLINK-3668,1 52002U 22025AY  24043.63026977  .00001273  00000-0  98027-4 0  9996,2 52002  53.2178 173.2455 0001909  64.1264 295.9925 15.08846126106780,6917.862,95.437,541.047,538.406,0.0
52002.0,STARLINK-3668,PAYLOAD,2024-02-13 11:47:36,15.08838365,0.0001521,53.2181,169.38,68.8927,291.2228,1.1202e-05,-1.1e-06,0.0,0 STARLINK-3668,1 52002U 22025AY  24044.49139686 -.00000110  00000-0  11202-4 0  9993,2 52002  53.2181 169.3800 0001521  68.8927 291.2228 15.08838365108425,6917.885,95.438,540.803,538.698,0.0
